{"fetched_at":"2026-07-24T07:06:40.016Z","source":"https://celestrak.org/NORAD/elements/gp.php?NAME=LEGION&FORMAT=JSON","constellation":"maxar-legion","records":[{"OBJECT_NAME":"LEGION 1","OBJECT_ID":"2024-081A","EPOCH":"2026-07-23T20:10:47.938368","CLASSIFICATION_TYPE":"U","MEAN_MOTION":15.16886575,"ECCENTRICITY":0.0008022,"INCLINATION":97.5003,"RA_OF_ASC_NODE":282.3092,"ARG_OF_PERICENTER":233.7603,"MEAN_ANOMALY":126.2889,"EPHEMERIS_TYPE":0,"NORAD_CAT_ID":59625,"ELEMENT_SET_NO":999,"REV_AT_EPOCH":12309,"BSTAR":0.00019091,"MEAN_MOTION_DOT":0.00003695,"MEAN_MOTION_DDOT":0},{"OBJECT_NAME":"LEGION 2","OBJECT_ID":"2024-081B","EPOCH":"2026-07-23T19:19:44.208192","CLASSIFICATION_TYPE":"U","MEAN_MOTION":15.16867411,"ECCENTRICITY":0.0010933,"INCLINATION":97.5004,"RA_OF_ASC_NODE":282.3707,"ARG_OF_PERICENTER":200.97,"MEAN_ANOMALY":159.1086,"EPHEMERIS_TYPE":0,"NORAD_CAT_ID":59626,"ELEMENT_SET_NO":999,"REV_AT_EPOCH":12309,"BSTAR":0.00017938,"MEAN_MOTION_DOT":0.00003468,"MEAN_MOTION_DDOT":0},{"OBJECT_NAME":"LEGION 3","OBJECT_ID":"2024-146A","EPOCH":"2026-07-23T20:07:51.602016","CLASSIFICATION_TYPE":"U","MEAN_MOTION":15.15694343,"ECCENTRICITY":0.0007248,"INCLINATION":45,"RA_OF_ASC_NODE":194.0563,"ARG_OF_PERICENTER":22.6713,"MEAN_ANOMALY":337.4484,"EPHEMERIS_TYPE":0,"NORAD_CAT_ID":60452,"ELEMENT_SET_NO":999,"REV_AT_EPOCH":10758,"BSTAR":0.00020243,"MEAN_MOTION_DOT":0.00003659,"MEAN_MOTION_DDOT":0},{"OBJECT_NAME":"LEGION 4","OBJECT_ID":"2024-146B","EPOCH":"2026-07-23T15:22:29.843616","CLASSIFICATION_TYPE":"U","MEAN_MOTION":15.15728416,"ECCENTRICITY":0.0009637,"INCLINATION":45.002,"RA_OF_ASC_NODE":286.9859,"ARG_OF_PERICENTER":165.3702,"MEAN_ANOMALY":194.7457,"EPHEMERIS_TYPE":0,"NORAD_CAT_ID":60453,"ELEMENT_SET_NO":999,"REV_AT_EPOCH":10640,"BSTAR":0.00021101,"MEAN_MOTION_DOT":0.00003831,"MEAN_MOTION_DDOT":0},{"OBJECT_NAME":"LEGION 5","OBJECT_ID":"2025-025A","EPOCH":"2026-07-23T18:32:15.557856","CLASSIFICATION_TYPE":"U","MEAN_MOTION":15.15745851,"ECCENTRICITY":0.0007462,"INCLINATION":45.0013,"RA_OF_ASC_NODE":105.2363,"ARG_OF_PERICENTER":333.6466,"MEAN_ANOMALY":26.4032,"EPHEMERIS_TYPE":0,"NORAD_CAT_ID":62900,"ELEMENT_SET_NO":999,"REV_AT_EPOCH":8004,"BSTAR":0.0001969,"MEAN_MOTION_DOT":0.00003558,"MEAN_MOTION_DDOT":0},{"OBJECT_NAME":"LEGION 6","OBJECT_ID":"2025-025B","EPOCH":"2026-07-23T20:05:59.786592","CLASSIFICATION_TYPE":"U","MEAN_MOTION":15.15737172,"ECCENTRICITY":0.0010411,"INCLINATION":45.0024,"RA_OF_ASC_NODE":14.0349,"ARG_OF_PERICENTER":320.7784,"MEAN_ANOMALY":39.2339,"EPHEMERIS_TYPE":0,"NORAD_CAT_ID":62901,"ELEMENT_SET_NO":999,"REV_AT_EPOCH":8119,"BSTAR":0.00019605,"MEAN_MOTION_DOT":0.00003542,"MEAN_MOTION_DDOT":0}]}
